STARLINK-30176          
1 57477U 23107W   26068.12010608  .00030594  00000+0  11458-2 0  9994
2 57477  43.0011 338.9988 0001737 274.2479  85.8174 15.26730149145069
KUIPER-00266            
1 67789U 26030AB  26067.91293632  .00029701  00000+0  98220-3 0  9996
2 67789  51.8807 223.5904 0022313  72.5291 287.8129 15.30874235  4964
